STARLINK-36375          
1 67920U 26036S   26061.16668981 -.01424845  00000+0 -53231-2 0  9996
2 67920  42.9954 295.8266 0001787 275.3793 296.4436 15.89727519  2433
STARLINK-36405          
1 67921U 26036T   26061.16668981 -.01433548  00000+0 -53135-2 0  9990
2 67921  42.9955 295.8196 0001746 272.4448 302.1929 15.89899086  2438
STARLINK-36383          
1 67922U 26036U   26061.16668981 -.01411644  00000+0 -51840-2 0  9995
2 67922  42.9956 295.8118 0001875 273.3886 304.3374 15.90032071  2436
STARLINK-36406          
1 67923U 26036V   26061.16668981 -.01415379  00000+0 -51578-2 0  9993
2 67923  42.9956 295.8046 0001781 273.8695 306.7274 15.90190088  2434
STARLINK-36714          
1 67924U 26036W   26061.16668981 -.01419482  00000+0 -51321-2 0  9999
2 67924  42.9957 295.7974 0001775 275.1788 308.2549 15.90350581  2434
STARLINK-36726          
1 67925U 26036X   26061.16668981 -.01417548  00000+0 -50808-2 0  9990
2 67925  42.9956 295.7906 0001822 273.2797 312.8181 15.90513309  2433
STARLINK-36758          
1 67926U 26036Y   26061.16668981 -.01404015  00000+0 -49884-2 0  9998
2 67926  42.9955 295.7831 0001837 272.6241 316.3569 15.90654180  2435
STARLINK-36728          
1 67927U 26036Z   26061.16668981 -.01399835  00000+0 -48990-2 0  9999
2 67927  42.9955 295.7677 0001871 271.4998 323.4860 15.90935244  2434
STARLINK-36771          
1 67928U 26036AA  26061.16668981 -.01418675  00000+0 -50107-2 0  9997
2 67928  42.9954 295.7748 0001873 271.9633 320.2247 15.90796734  2439
STARLINK-36809          
1 67929U 26036AB  26061.16668981 -.01407317  00000+0 -48906-2 0  9993
2 67929  42.9954 295.7603 0001854 271.4787 326.4406 15.91084888  2430
STARLINK-36865          
1 67930U 26036AC  26061.16668981 -.01600351  71040-3 -48266-2 0  9993
2 67930  42.9953 295.7453 0001903 271.1702 332.6497 15.91367038  2433
STARLINK-36781          
1 67931U 26036AD  26061.16668981 -.01609587  71704-3 -48886-2 0  9999
2 67931  42.9955 295.7530 0001818 274.1799 326.6608 15.91232844  2439
