CCSDS_OMM_VERS = 2.0
CREATION_DATE  = 
ORIGINATOR     = 

OBJECT_NAME    = STARLINK-36375
OBJECT_ID      = 2026-036S
CENTER_NAME    = EARTH
REF_FRAME      = TEME
TIME_SYSTEM    = UTC
MEAN_ELEMENT_THEORY = SGP/SGP4

EPOCH          = 2026-03-02T04:00:01.999584
MEAN_MOTION    = 15.89727519
ECCENTRICITY   = .0001787
INCLINATION    = 42.9954
RA_OF_ASC_NODE = 295.8266
ARG_OF_PERICENTER = 275.3793
MEAN_ANOMALY   = 296.4436

EPHEMERIS_TYPE = 0
CLASSIFICATION_TYPE = U
NORAD_CAT_ID   = 67920
ELEMENT_SET_NO = 999
REV_AT_EPOCH   = 243
BSTAR          = -.53231E-2
MEAN_MOTION_DOT = -.1424845E-1
MEAN_MOTION_DDOT = 0

CCSDS_OMM_VERS = 2.0
CREATION_DATE  = 
ORIGINATOR     = 

OBJECT_NAME    = STARLINK-36405
OBJECT_ID      = 2026-036T
CENTER_NAME    = EARTH
REF_FRAME      = TEME
TIME_SYSTEM    = UTC
MEAN_ELEMENT_THEORY = SGP/SGP4

EPOCH          = 2026-03-02T04:00:01.999584
MEAN_MOTION    = 15.89899086
ECCENTRICITY   = .0001746
INCLINATION    = 42.9955
RA_OF_ASC_NODE = 295.8196
ARG_OF_PERICENTER = 272.4448
MEAN_ANOMALY   = 302.1929

EPHEMERIS_TYPE = 0
CLASSIFICATION_TYPE = U
NORAD_CAT_ID   = 67921
ELEMENT_SET_NO = 999
REV_AT_EPOCH   = 243
BSTAR          = -.53135E-2
MEAN_MOTION_DOT = -.1433548E-1
MEAN_MOTION_DDOT = 0

CCSDS_OMM_VERS = 2.0
CREATION_DATE  = 
ORIGINATOR     = 

OBJECT_NAME    = STARLINK-36383
OBJECT_ID      = 2026-036U
CENTER_NAME    = EARTH
REF_FRAME      = TEME
TIME_SYSTEM    = UTC
MEAN_ELEMENT_THEORY = SGP/SGP4

EPOCH          = 2026-03-02T04:00:01.999584
MEAN_MOTION    = 15.90032071
ECCENTRICITY   = .0001875
INCLINATION    = 42.9956
RA_OF_ASC_NODE = 295.8118
ARG_OF_PERICENTER = 273.3886
MEAN_ANOMALY   = 304.3374

EPHEMERIS_TYPE = 0
CLASSIFICATION_TYPE = U
NORAD_CAT_ID   = 67922
ELEMENT_SET_NO = 999
REV_AT_EPOCH   = 243
BSTAR          = -.5184E-2
MEAN_MOTION_DOT = -.1411644E-1
MEAN_MOTION_DDOT = 0

CCSDS_OMM_VERS = 2.0
CREATION_DATE  = 
ORIGINATOR     = 

OBJECT_NAME    = STARLINK-36406
OBJECT_ID      = 2026-036V
CENTER_NAME    = EARTH
REF_FRAME      = TEME
TIME_SYSTEM    = UTC
MEAN_ELEMENT_THEORY = SGP/SGP4

EPOCH          = 2026-03-02T04:00:01.999584
MEAN_MOTION    = 15.90190088
ECCENTRICITY   = .0001781
INCLINATION    = 42.9956
RA_OF_ASC_NODE = 295.8046
ARG_OF_PERICENTER = 273.8695
MEAN_ANOMALY   = 306.7274

EPHEMERIS_TYPE = 0
CLASSIFICATION_TYPE = U
NORAD_CAT_ID   = 67923
ELEMENT_SET_NO = 999
REV_AT_EPOCH   = 243
BSTAR          = -.51578E-2
MEAN_MOTION_DOT = -.1415379E-1
MEAN_MOTION_DDOT = 0

CCSDS_OMM_VERS = 2.0
CREATION_DATE  = 
ORIGINATOR     = 

OBJECT_NAME    = STARLINK-36714
OBJECT_ID      = 2026-036W
CENTER_NAME    = EARTH
REF_FRAME      = TEME
TIME_SYSTEM    = UTC
MEAN_ELEMENT_THEORY = SGP/SGP4

EPOCH          = 2026-03-02T04:00:01.999584
MEAN_MOTION    = 15.90350581
ECCENTRICITY   = .0001775
INCLINATION    = 42.9957
RA_OF_ASC_NODE = 295.7974
ARG_OF_PERICENTER = 275.1788
MEAN_ANOMALY   = 308.2549

EPHEMERIS_TYPE = 0
CLASSIFICATION_TYPE = U
NORAD_CAT_ID   = 67924
ELEMENT_SET_NO = 999
REV_AT_EPOCH   = 243
BSTAR          = -.51321E-2
MEAN_MOTION_DOT = -.1419482E-1
MEAN_MOTION_DDOT = 0

CCSDS_OMM_VERS = 2.0
CREATION_DATE  = 
ORIGINATOR     = 

OBJECT_NAME    = STARLINK-36726
OBJECT_ID      = 2026-036X
CENTER_NAME    = EARTH
REF_FRAME      = TEME
TIME_SYSTEM    = UTC
MEAN_ELEMENT_THEORY = SGP/SGP4

EPOCH          = 2026-03-02T04:00:01.999584
MEAN_MOTION    = 15.90513309
ECCENTRICITY   = .0001822
INCLINATION    = 42.9956
RA_OF_ASC_NODE = 295.7906
ARG_OF_PERICENTER = 273.2797
MEAN_ANOMALY   = 312.8181

EPHEMERIS_TYPE = 0
CLASSIFICATION_TYPE = U
NORAD_CAT_ID   = 67925
ELEMENT_SET_NO = 999
REV_AT_EPOCH   = 243
BSTAR          = -.50808E-2
MEAN_MOTION_DOT = -.1417548E-1
MEAN_MOTION_DDOT = 0

CCSDS_OMM_VERS = 2.0
CREATION_DATE  = 
ORIGINATOR     = 

OBJECT_NAME    = STARLINK-36758
OBJECT_ID      = 2026-036Y
CENTER_NAME    = EARTH
REF_FRAME      = TEME
TIME_SYSTEM    = UTC
MEAN_ELEMENT_THEORY = SGP/SGP4

EPOCH          = 2026-03-02T04:00:01.999584
MEAN_MOTION    = 15.90654180
ECCENTRICITY   = .0001837
INCLINATION    = 42.9955
RA_OF_ASC_NODE = 295.7831
ARG_OF_PERICENTER = 272.6241
MEAN_ANOMALY   = 316.3569

EPHEMERIS_TYPE = 0
CLASSIFICATION_TYPE = U
NORAD_CAT_ID   = 67926
ELEMENT_SET_NO = 999
REV_AT_EPOCH   = 243
BSTAR          = -.49884E-2
MEAN_MOTION_DOT = -.1404015E-1
MEAN_MOTION_DDOT = 0

CCSDS_OMM_VERS = 2.0
CREATION_DATE  = 
ORIGINATOR     = 

OBJECT_NAME    = STARLINK-36728
OBJECT_ID      = 2026-036Z
CENTER_NAME    = EARTH
REF_FRAME      = TEME
TIME_SYSTEM    = UTC
MEAN_ELEMENT_THEORY = SGP/SGP4

EPOCH          = 2026-03-02T04:00:01.999584
MEAN_MOTION    = 15.90935244
ECCENTRICITY   = .0001871
INCLINATION    = 42.9955
RA_OF_ASC_NODE = 295.7677
ARG_OF_PERICENTER = 271.4998
MEAN_ANOMALY   = 323.4860

EPHEMERIS_TYPE = 0
CLASSIFICATION_TYPE = U
NORAD_CAT_ID   = 67927
ELEMENT_SET_NO = 999
REV_AT_EPOCH   = 243
BSTAR          = -.4899E-2
MEAN_MOTION_DOT = -.1399835E-1
MEAN_MOTION_DDOT = 0

CCSDS_OMM_VERS = 2.0
CREATION_DATE  = 
ORIGINATOR     = 

OBJECT_NAME    = STARLINK-36771
OBJECT_ID      = 2026-036AA
CENTER_NAME    = EARTH
REF_FRAME      = TEME
TIME_SYSTEM    = UTC
MEAN_ELEMENT_THEORY = SGP/SGP4

EPOCH          = 2026-03-02T04:00:01.999584
MEAN_MOTION    = 15.90796734
ECCENTRICITY   = .0001873
INCLINATION    = 42.9954
RA_OF_ASC_NODE = 295.7748
ARG_OF_PERICENTER = 271.9633
MEAN_ANOMALY   = 320.2247

EPHEMERIS_TYPE = 0
CLASSIFICATION_TYPE = U
NORAD_CAT_ID   = 67928
ELEMENT_SET_NO = 999
REV_AT_EPOCH   = 243
BSTAR          = -.50107E-2
MEAN_MOTION_DOT = -.1418675E-1
MEAN_MOTION_DDOT = 0

CCSDS_OMM_VERS = 2.0
CREATION_DATE  = 
ORIGINATOR     = 

OBJECT_NAME    = STARLINK-36809
OBJECT_ID      = 2026-036AB
CENTER_NAME    = EARTH
REF_FRAME      = TEME
TIME_SYSTEM    = UTC
MEAN_ELEMENT_THEORY = SGP/SGP4

EPOCH          = 2026-03-02T04:00:01.999584
MEAN_MOTION    = 15.91084888
ECCENTRICITY   = .0001854
INCLINATION    = 42.9954
RA_OF_ASC_NODE = 295.7603
ARG_OF_PERICENTER = 271.4787
MEAN_ANOMALY   = 326.4406

EPHEMERIS_TYPE = 0
CLASSIFICATION_TYPE = U
NORAD_CAT_ID   = 67929
ELEMENT_SET_NO = 999
REV_AT_EPOCH   = 243
BSTAR          = -.48906E-2
MEAN_MOTION_DOT = -.1407317E-1
MEAN_MOTION_DDOT = 0

CCSDS_OMM_VERS = 2.0
CREATION_DATE  = 
ORIGINATOR     = 

OBJECT_NAME    = STARLINK-36865
OBJECT_ID      = 2026-036AC
CENTER_NAME    = EARTH
REF_FRAME      = TEME
TIME_SYSTEM    = UTC
MEAN_ELEMENT_THEORY = SGP/SGP4

EPOCH          = 2026-03-02T04:00:01.999584
MEAN_MOTION    = 15.91367038
ECCENTRICITY   = .0001903
INCLINATION    = 42.9953
RA_OF_ASC_NODE = 295.7453
ARG_OF_PERICENTER = 271.1702
MEAN_ANOMALY   = 332.6497

EPHEMERIS_TYPE = 0
CLASSIFICATION_TYPE = U
NORAD_CAT_ID   = 67930
ELEMENT_SET_NO = 999
REV_AT_EPOCH   = 243
BSTAR          = -.48266E-2
MEAN_MOTION_DOT = -.1600351E-1
MEAN_MOTION_DDOT = .7104E-3

CCSDS_OMM_VERS = 2.0
CREATION_DATE  = 
ORIGINATOR     = 

OBJECT_NAME    = STARLINK-36781
OBJECT_ID      = 2026-036AD
CENTER_NAME    = EARTH
REF_FRAME      = TEME
TIME_SYSTEM    = UTC
MEAN_ELEMENT_THEORY = SGP/SGP4

EPOCH          = 2026-03-02T04:00:01.999584
MEAN_MOTION    = 15.91232844
ECCENTRICITY   = .0001818
INCLINATION    = 42.9955
RA_OF_ASC_NODE = 295.7530
ARG_OF_PERICENTER = 274.1799
MEAN_ANOMALY   = 326.6608

EPHEMERIS_TYPE = 0
CLASSIFICATION_TYPE = U
NORAD_CAT_ID   = 67931
ELEMENT_SET_NO = 999
REV_AT_EPOCH   = 243
BSTAR          = -.48886E-2
MEAN_MOTION_DOT = -.1609587E-1
MEAN_MOTION_DDOT = .71704E-3

